BEIDOU-3 M1 (C19)       
1 43001U 17069A   24149.00819100  .00000011  00000+0  00000+0 0  9990
2 43001  56.0486  87.9315 0011573 306.3777  53.4949  1.86231275 44638
BEIDOU-3 M2 (C20)       
1 43002U 17069B   24150.01929880  .00000011  00000+0  00000+0 0  9991
2 43002  56.0487  87.9336 0009614 328.0690  31.8546  1.86230927 44648
BEIDOU-3 M7 (C27)       
1 43107U 18003A   24151.37946823 -.00000060  00000+0  00000+0 0  9997
2 43107  54.9483 328.2370 0004982  73.6475 286.4120  1.86232348 43423
BEIDOU-3 M8 (C28)       
1 43108U 18003B   24150.24584154 -.00000056  00000+0  00000+0 0  9993
2 43108  54.9423 328.2617 0002406 259.5882 100.3890  1.86230847 43417
BEIDOU-3 M4 (C22)       
1 43207U 18018A   24150.15017603  .00000011  00000+0  00000+0 0  9999
2 43207  56.0082  87.9832 0007113 350.0206   9.9472  1.86231161 42796
BEIDOU-3 M3 (C21)       
1 43208U 18018B   24151.29066296  .00000005  00000+0  00000+0 0  9991
2 43208  56.0084  87.9496 0009363 318.3776  41.5332  1.86231053 42813
BEIDOU-3 M9 (C29)       
1 43245U 18029A   24150.97513278 -.00000057  00000+0  00000+0 0  9993
2 43245  54.8328 325.9607 0000505  97.8546 262.1533  1.86232364 41968
BEIDOU-3 M10 (C30)      
1 43246U 18029B   24151.44178662 -.00000060  00000+0  00000+0 0  9995
2 43246  54.8295 325.9725 0004018  22.2005 337.8192  1.86232797 41958
BEIDOU-2 IGSO-7 (C16)   
1 43539U 18057A   24151.76361795 -.00000061  00000+0  00000+0 0  9998
2 43539  55.1399 169.5199 0075331 233.4285 232.4344  1.00257839 21644
BEIDOU-3 M5 (C23)       
1 43581U 18062A   24150.05372003  .00000044  00000+0  00000+0 0  9996
2 43581  54.1336 207.7861 0004693 273.1379  86.8884  1.86228547 39681
BEIDOU-3 M6 (C24)       
1 43582U 18062B   24152.06748648  .00000047  00000+0  00000+0 0  9995
2 43582  54.1332 207.7068 0004030   4.5118 355.5674  1.86229301 39726
BEIDOU-3 M12 (C26)      
1 43602U 18067A   24149.31628869  .00000049  00000+0  00000+0 0  9991
2 43602  54.2238 206.4800 0006698  19.9743 340.1355  1.86231669 39154
BEIDOU-3 M11 (C25)      
1 43603U 18067B   24152.13494900  .00000051  00000+0  00000+0 0  9996
2 43603  54.2206 206.3494 0003604   3.4953 356.5831  1.86231513 39230
BEIDOU-3 M13 (C32)      
1 43622U 18072A   24151.02182159  .00000006  00000+0  00000+0 0  9990
2 43622  55.9798  87.4856 0008033 306.7953  53.1137  1.86231414 38727
BEIDOU-3 M14 (C33)      
1 43623U 18072B   24151.96118040 -.00000003  00000+0  00000+0 0  9990
2 43623  55.9824  87.4474 0006155 331.2332  28.7139  1.86231404 38731
BEIDOU-3 M16 (C35)      
1 43647U 18078A   24151.05011303 -.00000058  00000+0  00000+0 0  9996
2 43647  54.7293 326.0581 0007415  23.9699 336.0670  1.86232145 38239
BEIDOU-3 M15 (C34)      
1 43648U 18078B   24150.10539425 -.00000055  00000+0  00000+0 0  9999
2 43648  54.7255 326.0937 0004571  38.7596 321.2750  1.86232167 38221
BEIDOU-3 G1 (C59)       
1 43683U 18085A   24151.93607647 -.00000274  00000+0  00000+0 0  9993
2 43683   2.1498 110.2384 0004274 351.4121 264.2600  1.00267565 20568
BEIDOU-3 M17 (C36)      
1 43706U 18093A   24149.71851519  .00000046  00000+0  00000+0 0  9996
2 43706  54.2165 207.7344 0009629 279.1146  80.8580  1.86228213 37583
BEIDOU-3 M18 (C37)      
1 43707U 18093B   24151.19486372  .00000044  00000+0  00000+0 0  9991
2 43707  54.2171 207.6760 0007540 305.3292  54.6767  1.86229636 37605
BEIDOU-3 IGSO-1 (C38)   
1 44204U 19023A   24151.61577354 -.00000234  00000+0  00000+0 0  9998
2 44204  57.6163  45.4074 0018784 210.3661 331.3325  1.00254203 18843
BEIDOU-2 G8 (C01)       
1 44231U 19027A   24151.93703373 -.00000244  00000+0  00000+0 0  9990
2 44231   1.9066  73.8204 0002519 154.1489 142.8322  1.00269574 18589
BEIDOU-3 IGSO-2 (C39)   
1 44337U 19035A   24151.45778420 -.00000065  00000+0  00000+0 0  9999
2 44337  55.1762 165.4233 0033295 209.5944 153.7587  1.00246135 18207
BEIDOU-3 M24 (C46)      
1 44542U 19061A   24151.80152240  .00000046  00000+0  00000+0 0  9999
2 44542  54.4439 207.9464 0007397 345.0293  15.0245  1.86231154 31871
BEIDOU-3 M23 (C45)      
1 44543U 19061B   24151.39691421  .00000044  00000+0  00000+0 0  9991
2 44543  54.4424 207.9291 0004878 324.4726  36.5559  1.86231435 31875
BEIDOU-3 IGSO-3 (C40)   
1 44709U 19073A   24150.78806333 -.00000199  00000+0  00000+0 0  9992
2 44709  56.0826 288.9193 0038455 180.8534 179.0899  1.00255122 16937
BEIDOU-3 M22 (C44)      
1 44793U 19078A   24150.03644884 -.00000055  00000+0  00000+0 0  9990
2 44793  54.5777 326.0275 0006523  32.2940 327.7477  1.86232069 30697
BEIDOU-3 M21 (C43)      
1 44794U 19078B   24149.62933624 -.00000054  00000+0  00000+0 0  9996
2 44794  54.5518 326.0181 0004264  31.2716 328.7552  1.86232548 30694
BEIDOU-3 M19 (C41)      
1 44864U 19090A   24151.81971052 -.00000001  00000+0  00000+0 0  9991
2 44864  55.9148  87.6314 0018657 284.8126 296.6677  1.86231485 30315
BEIDOU-3 M20 (C42)      
1 44865U 19090B   24150.60934715  .00000008  00000+0  00000+0 0  9999
2 44865  55.9153  87.7052 0016718 297.4552 282.2745  1.86231424 30276
BEIDOU-3 G2 (C60)       
1 45344U 20017A   24152.13888198 -.00000138  00000+0  00000+0 0  9991
2 45344   2.2959  28.9791 0001121  89.3055 260.8533  1.00272402 15786
BEIDOU-3 G3 (C61)       
1 45807U 20040A   24151.91810419 -.00000350  00000+0  00000+0 0  9993
2 45807   0.7494  40.0965 0004584 290.7003 359.1221  1.00265884 14570
BEIDOU-3 G4             
1 56564U 23066A   24152.16646779 -.00000109  00000+0  00000+0 0  9992
2 56564   2.1650 288.2128 0005390 196.2659 344.6667  1.00270489  3918
BEIDOU-3 M25            
1 58654U 23207A   24151.32287756  .00000003  00000+0  00000+0 0  9996
2 58654  55.0971  87.6762 0003892 303.7863  56.1586  1.86232211  2914
BEIDOU-3 M26            
1 58655U 23207B   24151.12180506  .00000004  00000+0  00000+0 0  9991
2 58655  55.0989  87.6683 0004282 283.7188  76.2157  1.86231848  2896
CUTE-1 (CO-55)          
1 27844U 03031E   24152.00747291  .00000658  00000+0  31001-3 0  9992
2 27844  98.6767 159.2764 0009518 187.1806 172.9237 14.23256465 85370
CUBESAT XI-IV (CO-57)   
1 27848U 03031J   24151.79420458  .00000560  00000+0  26962-3 0  9996
2 27848  98.6798 159.3210 0009088 204.4123 155.6626 14.22698682 85068
CUBESAT XI-V            
1 28895U 05043F   24151.85601748  .00003089  00000+0  55074-3 0  9999
2 28895  98.1990 287.6614 0016515  55.4396 304.8364 14.67652668992148
CUTE-1.7+APD II (CO-65) 
1 32785U 08021C   24151.90152045  .00007482  00000+0  66140-3 0  9995
2 32785  97.7528 117.3768 0011759  32.4316 327.7626 14.96563165872961
AAUSAT-II               
1 32788U 08021F   24151.43359046  .00018503  00000+0  94508-3 0  9991
2 32788  97.5935 131.6326 0004048 204.6797 155.4243 15.16736923875738
SEEDS II (CO-66)        
1 32791U 08021J   24151.83280782  .00012597  00000+0  92601-3 0  9998
2 32791  97.6895 123.1067 0006152  32.0587 328.1012 15.03538815873911
SWISSCUBE               
1 35932U 09051B   24152.15641845  .00001739  00000+0  38034-3 0  9995
2 35932  98.4737  35.1268 0007781  21.1415 339.0104 14.59038736780117
BEESAT-1                
1 35933U 09051C   24152.22668536  .00001491  00000+0  32935-3 0  9999
2 35933  98.4664  36.1297 0006348  34.7830 325.3783 14.58776373780238
ITUPSAT1                
1 35935U 09051E   24151.61143518  .00001397  00000+0  31627-3 0  9993
2 35935  98.4763  35.2968 0008734  39.4735 320.7097 14.57733760779734
TISAT 1                 
1 36799U 10035E   24151.62874230  .00011430  00000+0  87040-3 0  9998
2 36799  98.0945  40.3032 0002971 291.1589  68.9317 15.02253549754429
M-CUBED & EXP-1 PRIME   
1 37855U 11061F   24152.04056685  .00337631  00000+0  17403-2 0  9994
2 37855 101.6869 327.7613 0034538  15.2930 344.9357 15.79358609690815
AEROCUBE 4.5A           
1 38767U 12048K   24151.75514951  .00018360  00000+0  10020-2 0  9998
2 38767  64.6622  10.2197 0105947  24.4869 336.1230 15.09687203257832
AEROCUBE 4.5B           
1 38768U 12048L   24151.79081862  .00037883  00000+0  13912-2 0  9997
2 38768  64.6564 296.7375 0086939  11.8066 348.5071 15.24188088258773
STRAND-1                
1 39090U 13009E   24151.51002203  .00000580  00000+0  21408-3 0  9990
2 39090  98.3815 340.2842 0007905 310.9624  49.0877 14.36066430589703
BRITE-AUSTRIA           
1 39091U 13009F   24151.48274899  .00000377  00000+0  14491-3 0  9997
2 39091  98.3859 339.5277 0009517 317.8966  42.1488 14.35802131589720
NEE-01 PEGASO           
1 39151U 13018B   24151.97193030  .00004796  00000+0  55810-3 0  9994
2 39151  98.0341 268.9171 0016220  96.6155 263.6906 14.85680301599420
ESTCUBE 1               
1 39161U 13021C   24152.12643138  .00003466  00000+0  50634-3 0  9998
2 39161  97.8288 219.1105 0007568 287.0953  72.9428 14.76330362594615
POPACS 1                
1 39268U 13055D   24151.79233939  .00042311  00000+0  74599-3 0  9997
2 39268  80.9814 171.1885 0414747 148.5563 214.1186 14.90752347557945
POPACS 2                
1 39269U 13055E   24150.04365149  .00013099  00000+0  30136-3 0  9994
2 39269  81.0031 260.1595 0552520  21.4189 340.9172 14.56572378552811
POPACS 3                
1 39270U 13055F   24149.90638145  .00015576  00000+0  42701-3 0  9991
2 39270  81.0083 310.3634 0629879 162.0136 200.4497 14.36587606530193
ZACUBE-1 (TSHEPISOSAT)  
1 39417U 13066B   24151.85100630  .00004756  00000+0  49893-3 0  9993
2 39417  97.7329 108.2129 0049605 216.1357 143.6505 14.89085062569002
WNISAT-1                
1 39423U 13066H   24152.10570296  .00001710  00000+0  33300-3 0  9991
2 39423  97.6714 347.8150 0171348  63.1646 298.6958 14.55248406558166
TRITON-1                
1 39427U 13066M   24152.21450668  .00003619  00000+0  51274-3 0  9997
2 39427  97.8427  70.7504 0104120 136.1526 224.8008 14.73944116563906
DELFI-N3XT              
1 39428U 13066N   24151.73422262  .00006939  00000+0  88988-3 0  9993
2 39428  97.8389  70.5329 0102476 144.3788 216.4320 14.77880672563511
